STARLINK-3081           
1 49152U 21082Y   24056.84609773  .00001584  00000+0  14051-3 0  9996
2 49152  70.0016 327.4133 0002822 278.2730  81.8109 14.98332409136823
STARLINK-3072           
1 49153U 21082Z   24056.46223276 -.00000811  00000+0 -60165-4 0  9997
2 49153  70.0022 328.3952 0002422 276.1898  83.8985 14.98333625136845
STARLINK-3068           
1 49154U 21082AA  24056.55425924  .00001957  00000+0  17177-3 0  9996
2 49154  70.0022 348.1500 0002649 279.4342  80.6517 14.98327916136231
STARLINK-3060           
1 49155U 21082AB  24056.45805689  .00001262  00000+0  11351-3 0  9993
2 49155  70.0018 328.4093 0002560 264.7873  95.2994 14.98331531136715
STARLINK-3085           
1 49156U 21082AC  24056.83775187  .00001222  00000+0  11018-3 0  9991
2 49156  70.0010 327.4421 0002561 269.8327  90.2538 14.98334969136776
STARLINK-3051           
1 49157U 21082AD  24056.55008306 -.00000404  00000+0 -26068-4 0  9998
2 49157  70.0025 348.1642 0002572 276.9507  83.1359 14.98337530136251
STARLINK-3083           
1 49158U 21082AE  24056.21298297  .00044742  00000+0  28284-2 0  9993
2 49158  70.0004 344.1771 0005635 269.7660  90.2859 15.08789010136329
STARLINK-3056           
1 49159U 21082AF  24056.85073778  .00000480  00000+0  47983-4 0  9999
2 49159  70.0029   7.4186 0002882 270.4673  89.6155 14.98328408135801
STARLINK-3095           
1 49160U 21082AG  24056.57120123 -.00001548  00000+0 -12204-3 0  9992
2 49160  70.0037   8.1067 0001848 272.5780  87.5168 14.98320944135731
STARLINK-3080           
1 49161U 21082AH  24056.57534783  .00002677  00000+0  23203-3 0  9997
2 49161  70.0030   8.0895 0002442 283.3524  76.7362 14.98329185135743
STARLINK-3082           
1 49162U 21082AJ  24056.58334491  .00498172  00000+0  40269-1 0  9991
2 49162  70.0036   8.1006 0002952 272.4248 154.0743 14.97371329  5748
STARLINK-3088           
1 49163U 21082AK  24056.54174064  .00000695  00000+0  66047-4 0  9990
2 49163  70.0028 348.1938 0002378 275.6405  84.4483 14.98334651136316
STARLINK-3106           
1 49164U 21082AL  24056.86719878  .00001658  00000+0  14678-3 0  9996
2 49164  70.0021 347.3782 0003061 270.8505  89.2303 14.98320876136370
STARLINK-3052           
1 49165U 21082AM  24056.91667824 -.00004126  00000+0 -33800-3 0  9999
2 49165  70.0039   7.2645 0003128 267.4125 178.2521 14.98350645135922
STARLINK-3089           
1 49166U 21082AN  24056.53756802 -.00000241  00000+0 -12446-4 0  9991
2 49166  70.0033 348.2086 0002528 278.5287  81.5585 14.98334568136359
STARLINK-3054           
1 49167U 21082AP  24056.82569496  .00000562  00000+0  54900-4 0  9990
2 49167  70.0021   7.4746 0002157 270.9856  89.1056 14.98333749135918
STARLINK-3101           
1 49168U 21082AQ  24056.85467456  .00000357  00000+0  37669-4 0  9992
2 49168  70.0029 347.3953 0002726 259.5182 100.5670 14.98331099136401
STARLINK-3046           
1 49169U 21082AR  24056.52922071 -.00000449  00000+0 -29872-4 0  9997
2 49169  70.0020 348.2362 0002705 271.6980  88.3869 14.98339478135158
STARLINK-3074           
1 49170U 21082AS  24056.60038622  .00000140  00000+0  19507-4 0  9998
2 49170  70.0027   8.0463 0002548 276.1036  83.9832 14.98336563134676
STARLINK-3107           
1 49171U 21082AT  24056.28744806  .00001740  00000+0  15358-3 0  9997
2 49171  70.0022   8.8456 0002704 271.2824  88.8026 14.98333258135787
STARLINK-3091           
1 49172U 21082AU  24056.22879896  .00001023  00000+0  93533-4 0  9996
2 49172  70.0025 348.9771 0002538 264.9603  95.1266 14.98336767135109
STARLINK-3045           
1 49173U 21082AV  24056.85050319 -.00000392  00000+0 -25097-4 0  9997
2 49173  70.0038 347.4088 0003107 267.2661  92.8142 14.98336189135208
STARLINK-3047           
1 49174U 21082AW  24056.84363178  .00018335  00000+0  13750-2 0  9992
2 49174  70.0007 345.3041 0004012 253.4782 106.5938 15.02680409136422
STARLINK-3087           
1 49175U 21082AX  24056.81295512  .00002926  00000+0  25299-3 0  9997
2 49175  70.0010 347.5178 0002902 270.1072  89.9754 14.98320570135193
STARLINK-3069           
1 49176U 21082AY  24056.46640396  .00000457  00000+0  46053-4 0  9992
2 49176  70.0015 328.3821 0002647 266.0848  94.0008 14.98332693135639
STARLINK-3103           
1 49177U 21082AZ  24056.48726635  .00001198  00000+0  10819-3 0  9999
2 49177  70.0000 328.3410 0002960 275.1997  84.8824 14.98329289136835
STARLINK-3086           
1 49178U 21082BA  24056.84656214  .00003998  00000+0  34273-3 0  9995
2 49178  70.0037   7.4144 0002702 257.7971 102.2885 14.98325994135860
STARLINK-3043           
1 49179U 21082BB  24056.47474591 -.00001315  00000+0 -10243-3 0  9995
2 49179  69.9990 328.3554 0002953 271.8035  88.2786 14.98338871135638
STARLINK-3050           
1 49180U 21082BC  24056.85885002  .00005166  00000+0  44066-3 0  9998
2 49180  70.0023 347.3916 0002764 269.4934  90.5908 14.98310709136378
STARLINK-3059           
1 49181U 21082BD  24056.82987321  .00001144  00000+0  10363-3 0  9998
2 49181  70.0041   7.4723 0002986 272.2969  87.7849 14.98327197135870
STARLINK-3151           
1 49408U 21104A   24056.76328082  .00003261  00000+0  22277-3 0  9990
2 49408  53.2192 324.2564 0001349 102.2838 257.8306 15.08857862127579
STARLINK-3075           
1 49409U 21104B   24056.44680781  .00001319  00000+0  10095-3 0  9990
2 49409  53.2182 325.6653 0001763  83.4149 276.7044 15.08843281126431
STARLINK-3147           
1 49410U 21104C   24056.44040300  .00005996  00000+0  39438-3 0  9996
2 49410  53.2178 325.7069 0001521  97.8077 262.3088 15.08848089126420
STARLINK-3162           
1 49411U 21104D   24056.43300449  .00000644  00000+0  58547-4 0  9997
2 49411  53.2196 315.7264 0001572  77.7238 282.3930 15.08846176126567
STARLINK-3144           
1 49412U 21104E   24056.44312353  .00009452  00000+0  61086-3 0  9993
2 49412  53.2182 325.6835 0001451  76.0230 284.0924 15.08858695126434
STARLINK-3157           
1 49413U 21104F   24056.43028582  .00000315  00000+0  37860-4 0  9994
2 49413  53.2174 315.7511 0001216  98.8525 261.2605 15.08839311127657
STARLINK-3146           
1 49414U 21104G   24056.43576325 -.00000898  00000+0 -38311-4 0  9998
2 49414  53.2189 325.7175 0001598 125.5729 234.5412 15.08843637126427
STARLINK-3159           
1 49415U 21104H   24056.09444737 -.00000301  00000+0 -84623-6 0  9990
2 49415  53.2182 317.2512 0001128  98.6948 261.4172 15.08839917126501
STARLINK-3133           
1 49416U 21104J   24056.36216461  .00005707  00000+0  37632-3 0  9990
2 49416  53.2176 326.0480 0001232  86.3774 273.7359 15.08843568126414
STARLINK-3154           
1 49417U 21104K   24056.85248383  .00004180  00000+0  28049-3 0  9999
2 49417  53.2183 313.5011 0001309  91.2720 268.8422 15.08846463127734
STARLINK-3111           
1 49418U 21104L   24056.15976070  .00003404  00000+0  23182-3 0  9995
2 49418  53.2185 326.9550 0001623 108.7769 251.3400 15.08849718126377
STARLINK-3120           
1 49419U 21104M   24056.74488571  .00001046  00000+0  83769-4 0  9993
2 49419  53.2179 324.3322 0001161  90.9568 269.1557 15.08837383127552
STARLINK-3110           
1 49420U 21104N   24056.75224271  .00004353  00000+0  29132-3 0  9998
2 49420  53.2155 324.2996 0001477  87.8559 272.2603 15.08849503127575
STARLINK-3112           
1 49421U 21104P   24056.45414059  .00003532  00000+0  23983-3 0  9997
2 49421  53.2180 325.4420 0001289  83.9888 276.1251 15.08847563126421
STARLINK-3161           
1 49422U 21104Q   24056.15239946 -.00001348  00000+0 -66629-4 0  9995
2 49422  53.2191 326.9876 0001495  99.0846 261.0315 15.08838851126374
STARLINK-3149           
1 49423U 21104R   24056.73962050  .00001324  00000+0  10559-3 0  9991
2 49423  53.2174 324.4521 0001623  82.0435 278.0740 15.07208175127555
STARLINK-3135           
1 49424U 21104S   24056.74120389  .00001687  00000+0  12407-3 0  9990
2 49424  53.2184 324.3481 0001596  89.0710 271.0465 15.08840920127551
STARLINK-3139           
1 49425U 21104T   24056.46248482  .00000857  00000+0  71907-4 0  9994
2 49425  53.2192 325.6054 0001501  92.2502 267.8662 15.08843531127511
STARLINK-3114           
1 49426U 21104U   24056.13768382  .00000552  00000+0  52753-4 0  9995
2 49426  53.2177 327.0610 0001373  89.6532 270.4617 15.08850317126372
STARLINK-3131           
1 49427U 21104V   24056.45879732 -.00001310  00000+0 -64203-4 0  9991
2 49427  53.2193 325.6243 0001442  90.7979 269.3178 15.08851530126436
STARLINK-3121           
1 49428U 21104W   24056.77063324  .00000141  00000+0  26944-4 0  9998
2 49428  53.2184 324.1269 0001429  89.5735 270.5420 15.08839392127550
STARLINK-3138           
1 49430U 21104Y   24056.48091241  .00010180  00000+0  65673-3 0  9993
2 49430  53.2171 325.7969 0001075  82.1736 277.9378 15.08841175126431
STARLINK-3153           
1 49431U 21104Z   24056.70171053  .00001024  00000+0  82450-4 0  9999
2 49431  53.2186 324.7538 0001701  92.5181 267.6006 15.08836154127542
STARLINK-3158           
1 49432U 21104AA  24056.41924093  .00000079  00000+0  23043-4 0  9990
2 49432  53.2184 315.7932 0001227  86.6146 273.4986 15.08840561126567
STARLINK-3079           
1 49433U 21104AB  24056.41920070  .00000307  00000+0  37383-4 0  9998
2 49433  53.2184 305.7925 0001427  96.6657 263.4497 15.08847593127793
STARLINK-3134           
1 49434U 21104AC  24056.46522457  .00001743  00000+0  12758-3 0  9994
2 49434  53.2200 325.7366 0001467  88.2571 271.8589 15.08841666127510
STARLINK-3117           
1 49435U 21104AD  24056.42384300 -.00000068  00000+0  13791-4 0  9993
2 49435  53.2165 305.7735 0001475  85.0371 275.0790 15.08840419126706
STARLINK-3049           
1 49436U 21104AE  24056.82032272  .00000550  00000+0  52631-4 0  9997
2 49436  53.2176 303.9927 0001340  84.2645 275.8500 15.08846649127831
STARLINK-3130           
1 49437U 21104AF  24056.41554089 -.00000485  00000+0 -12439-4 0  9999
2 49437  53.2200 305.8121 0000517  87.5006 272.6046 15.08828266126709
